TRANSPORTER-12 OBJECT AZ
1 62656U 25009AZ  26068.71026235  .00016057  00000+0  54903-3 0  9991
2 62656  97.3981 151.9913 0000987  45.3581 314.7740 15.30349724 63792
STARLINK-34907          
1 65213U 25176R   26068.51817607  .00032734  00000+0  11127-2 0  9997
2 65213  53.1578 153.5626 0000962  85.5613 274.5498 15.30192945 33094
