[{"OBJECT_NAME":"TRANSPORTER-12 OBJECT AZ","OBJECT_ID":"2025-009AZ","EPOCH":"2026-03-09T17:02:46.667040","MEAN_MOTION":15.30349724,"ECCENTRICITY":9.87e-5,"INCLINATION":97.3981,"RA_OF_ASC_NODE":151.9913,"ARG_OF_PERICENTER":45.3581,"MEAN_ANOMALY":314.774,"EPHEMERIS_TYPE":0,"CLASSIFICATION_TYPE":"U","NORAD_CAT_ID":62656,"ELEMENT_SET_NO":999,"REV_AT_EPOCH":6379,"BSTAR":0.00054902545,"MEAN_MOTION_DOT":0.00016057,"MEAN_MOTION_DDOT":0},{"OBJECT_NAME":"STARLINK-34907","OBJECT_ID":"2025-176R","EPOCH":"2026-03-09T12:26:10.412448","MEAN_MOTION":15.30192945,"ECCENTRICITY":9.626e-5,"INCLINATION":53.1578,"RA_OF_ASC_NODE":153.5626,"ARG_OF_PERICENTER":85.5613,"MEAN_ANOMALY":274.5498,"EPHEMERIS_TYPE":0,"CLASSIFICATION_TYPE":"U","NORAD_CAT_ID":65213,"ELEMENT_SET_NO":999,"REV_AT_EPOCH":3309,"BSTAR":0.0011126903,"MEAN_MOTION_DOT":0.00032734,"MEAN_MOTION_DDOT":0}]
